[{"OBJECT_NAME":"GAOFEN-9 05","OBJECT_ID":"2020-058A","EPOCH":"2026-03-10T00:01:50.876256","MEAN_MOTION":15.30293976,"ECCENTRICITY":0.0010522,"INCLINATION":97.2228,"RA_OF_ASC_NODE":111.963,"ARG_OF_PERICENTER":91.0204,"MEAN_ANOMALY":269.2242,"EPHEMERIS_TYPE":0,"CLASSIFICATION_TYPE":"U","NORAD_CAT_ID":46232,"ELEMENT_SET_NO":999,"REV_AT_EPOCH":30843,"BSTAR":0.00025120304,"MEAN_MOTION_DOT":7.299e-5,"MEAN_MOTION_DDOT":0},{"OBJECT_NAME":"STARLINK-31179","OBJECT_ID":"2024-005Y","EPOCH":"2026-03-09T19:25:42.648960","MEAN_MOTION":15.26735865,"ECCENTRICITY":7.174e-5,"INCLINATION":43.0036,"RA_OF_ASC_NODE":218.9351,"ARG_OF_PERICENTER":263.6598,"MEAN_ANOMALY":96.4172,"EPHEMERIS_TYPE":0,"CLASSIFICATION_TYPE":"U","NORAD_CAT_ID":58750,"ELEMENT_SET_NO":999,"REV_AT_EPOCH":12046,"BSTAR":5.5251005e-5,"MEAN_MOTION_DOT":1.223e-5,"MEAN_MOTION_DDOT":0}]
